NORAD_CAT_ID,OBJECT_NAME,OBJECT_TYPE,EPOCH,MEAN_MOTION,ECCENTRICITY,INCLINATION,RA_OF_ASC_NODE,ARG_OF_PERICENTER,MEAN_ANOMALY,BSTAR,MEAN_MOTION_DOT,MEAN_MOTION_DDOT,TLE_LINE0,TLE_LINE1,TLE_LINE2,SEMIMAJOR_AXIS,PERIOD,APOGEE,PERIGEE,DECAYED
51773.0,STARLINK-3624,PAYLOAD,2022-03-30 22:00:00,15.73217348,0.0001101,53.2173,338.9535,79.1589,167.0185,-0.00014146,-0.00020439,0.0,0 STARLINK-3624,1 51773U 22017F   22089.91667824 -.00020439  00000-0 -14146-3 0  9998,2 51773  53.2173 338.9535 0001101  79.1589 167.0185 15.73217348  3725,6727.846,91.532,350.451,348.97,0.0
51773.0,STARLINK-3624,PAYLOAD,2022-03-31 14:00:01,15.73141581,0.0001043,53.2167,335.6528,93.1809,330.8714,0.00069706,0.0009811,0.0,0 STARLINK-3624,1 51773U 22017F   22090.58334491  .00098110  00000-0  69706-3 0  9995,2 51773  53.2167 335.6528 0001043  93.1809 330.8714 15.73141581  6580,6728.062,91.537,350.62800000000016,349.225,0.0
51773.0,STARLINK-3624,PAYLOAD,2022-03-31 22:00:00,15.73217683,0.0001067,53.2168,334.0052,82.3147,70.6425,0.00040699,0.00056929,0.0,0 STARLINK-3624,1 51773U 22017F   22090.91667824  .00056929  00000-0  40699-3 0  9993,2 51773  53.2168 334.0052 0001067  82.3147  70.6425 15.73217683  3680,6727.845,91.532,350.42800000000005,348.992,0.0
51773.0,STARLINK-3624,PAYLOAD,2022-04-01 14:00:01,15.73238628,0.0001102,53.2166,330.7042,90.8337,240.1237,-0.00025651,-0.00036522,0.0,0 STARLINK-3624,1 51773U 22017F   22091.58334491 -.00036522  00000-0 -25651-3 0  9998,2 51773  53.2166 330.7042 0001102  90.8337 240.1237 15.73238628  6742,6727.785,91.531,350.391,348.909,0.0
51773.0,STARLINK-3624,PAYLOAD,2022-04-01 22:00:00,15.73216623,0.0001155,53.2164,329.0566,80.0717,339.8538,-0.0005882999999999,-0.00082436,0.0,0 STARLINK-3624,1 51773U 22017F   22091.91667824 -.00082436  00000-0 -58830-3 0  9994,2 51773  53.2164 329.0566 0001155  80.0717 339.8538 15.73216623  3673,6727.848000000001,91.532,350.49,348.936,0.0
51773.0,STARLINK-3624,PAYLOAD,2022-04-02 06:00:00,15.73159823,0.0001156,53.2151,327.4071,79.5135,69.3254,-0.00015069,-0.00021676,0.0,0 STARLINK-3624,1 51773U 22017F   22092.25001157 -.00021676  00000-0 -15069-3 0  9999,2 51773  53.2151 327.4071 0001156  79.5135  69.3254 15.73159823  6840,6728.01,91.536,350.652,349.097,0.0
51773.0,STARLINK-3624,PAYLOAD,2022-04-02 14:00:01,15.73177323,0.00012,53.2157,325.7555,95.7107,142.1047,0.00030874,0.00042889,0.0,0 STARLINK-3624,1 51773U 22017F   22092.58335648  .00042889  00000-0  30874-3 0  9998,2 51773  53.2157 325.7555 0001200  95.7107 142.1047 15.73177323  6893,6727.96,91.535,350.63199999999995,349.017,0.0
51773.0,STARLINK-3624,PAYLOAD,2022-04-02 22:00:01,15.73200551,0.0001243,53.2159,324.1079,85.2922,241.4484,-0.0005185,-0.00072762,0.0,0 STARLINK-3624,1 51773U 22017F   22092.91668981 -.00072762  00000-0 -51850-3 0  9996,2 51773  53.2159 324.1079 0001243  85.2922 241.4484 15.73200551  6950,6727.894,91.533,350.595,348.922,0.0
51773.0,STARLINK-3624,PAYLOAD,2022-04-03 04:00:00,15.73206736,0.0001041,53.2157,322.871,79.5042,223.8952,0.00021378,0.00029496,0.0,0 STARLINK-3624,1 51773U 22017F   22093.16667824  .00029496  00000-0  21378-3 0  9995,2 51773  53.2157 322.8710 0001041  79.5042 223.8952 15.73206736  6999,6727.876,91.533,350.441,349.041,0.0
51773.0,STARLINK-3624,PAYLOAD,2022-04-03 14:00:01,15.73142085,0.0001163,53.2159,320.8071,93.8378,50.6192,-8.949700000000001e-05,-0.00013128,0.0,0 STARLINK-3624,1 51773U 22017F   22093.58334491 -.00013128  00000-0 -89497-4 0  9996,2 51773  53.2159 320.8071 0001163  93.8378  50.6192 15.73142085  7051,6728.06,91.537,350.708,349.14300000000014,0.0
51773.0,STARLINK-3624,PAYLOAD,2022-04-03 22:00:00,15.73063776,0.0001266,53.2157,319.1597,77.9276,155.3986,0.0015294,0.00218417,0.0,0 STARLINK-3624,1 51773U 22017F   22093.91667824  .00218417  00000-0  15294-2 0  9990,2 51773  53.2157 319.1597 0001266  77.9276 155.3986 15.73063776  3696,6728.284000000002,91.541,351.0,349.297,0.0
51773.0,STARLINK-3624,PAYLOAD,2022-04-04 04:00:00,15.73204141,0.0001284999999999,53.2149,317.9226,83.0129,126.9227,0.001778,0.00256734,0.0,0 STARLINK-3624,1 51773U 22017F   22094.16667824  .00256734  00000-0  17780-2 0  9994,2 51773  53.2149 317.9226 0001285  83.0129 126.9227 15.73204141  7147,6727.8830000000025,91.533,350.61300000000006,348.884,0.0
51773.0,STARLINK-3624,PAYLOAD,2022-04-04 14:00:01,15.73341161,0.000123,53.2154,315.8583,97.7453,313.5271,-0.0012885,-0.00178739,0.0,0 STARLINK-3624,1 51773U 22017F   22094.58334491 -.00178739  00000-0 -12885-2 0  9992,2 51773  53.2154 315.8583 0001230  97.7453 313.5271 15.73341161  7213,6727.493,91.525,350.185,348.53,0.0
51773.0,STARLINK-3624,PAYLOAD,2022-04-04 22:00:00,15.73209678,0.0001117,53.2155,314.2105,82.7082,57.6264,-0.00025269,-0.00035946,0.0,0 STARLINK-3624,1 51773U 22017F   22094.91667824 -.00035946  00000-0 -25269-3 0  9991,2 51773  53.2155 314.2105 0001117  82.7082  57.6264 15.73209678  3707,6727.868,91.533,350.4840000000001,348.981,0.0
51773.0,STARLINK-3624,PAYLOAD,2022-04-05 00:00:00,15.73173902,0.0001166,53.2157,313.7986,80.1737,172.4029,0.00027182,0.00037656,0.0,0 STARLINK-3624,1 51773U 22017F   22095.00001157  .00037656  00000-0  27182-3 0  9997,2 51773  53.2157 313.7986 0001166  80.1737 172.4029 15.73173902  7274,6727.97,91.535,350.619,349.05,0.0
51773.0,STARLINK-3624,PAYLOAD,2022-04-05 14:00:01,15.73159697,0.0001415,53.2158,310.9094,92.0762,226.1289,-0.00021781,-0.00031023,0.0,0 STARLINK-3624,1 51773U 22017F   22095.58335648 -.00031023  00000-0 -21781-3 0  9998,2 51773  53.2158 310.9094 0001415  92.0762 226.1289 15.73159697  3705,6728.01,91.536,350.827,348.923,0.0
51773.0,STARLINK-3624,PAYLOAD,2022-04-05 16:00:00,15.73156439,0.0001438,53.2158,310.4976,90.6966,339.661,-0.0002247,-0.00031977,0.0,0 STARLINK-3624,1 51773U 22017F   22095.66667824 -.00031977  00000-0 -22470-3 0  9995,2 51773  53.2158 310.4976 0001438  90.6966 339.6610 15.73156439  7381,6728.019,91.536,350.852,348.917,0.0
51773.0,STARLINK-3624,PAYLOAD,2022-04-05 22:00:00,15.73144283,0.0001473,53.2156,309.2621,81.9166,325.1029,0.00016902,0.0002311,0.0,0 STARLINK-3624,1 51773U 22017F   22095.91667824  .00023110  00000-0  16902-3 0  9994,2 51773  53.2156 309.2621 0001473  81.9166 325.1029 15.73144283  3706,6728.054,91.536,350.91,348.92800000000005,0.0
51773.0,STARLINK-3624,PAYLOAD,2022-04-06 06:00:02,15.731655300000002,0.0001197,53.215,307.6114,84.944,51.0223,-0.00011046,-0.00016069,0.0,0 STARLINK-3624,1 51773U 22017F   22096.25002315 -.00016069  00000-0 -11046-3 0  9991,2 51773  53.2150 307.6114 0001197  84.9440  51.0223 15.73165530  7477,6727.993,91.535,350.664,349.05300000000005,0.0
51773.0,STARLINK-3624,PAYLOAD,2022-04-06 14:00:01,15.73164044,0.0001145,53.2153,305.961,95.9985,128.7777,0.00060118,0.00084473,0.0,0 STARLINK-3624,1 51773U 22017F   22096.58334491  .00084473  00000-0  60118-3 0  9996,2 51773  53.2153 305.9610 0001145  95.9985 128.7777 15.73164044  7522,6727.998000000001,91.535,350.6330000000001,349.092,0.0
51773.0,STARLINK-3624,PAYLOAD,2022-04-06 22:00:00,15.73218955,0.0001207,53.2155,304.3138,81.3456,232.3395,-9.3041e-05,-0.00013667,0.0,0 STARLINK-3624,1 51773U 22017F   22096.91667824 -.00013667  00000-0 -93041-4 0  9993,2 51773  53.2155 304.3138 0001207  81.3456 232.3395 15.73218955  7588,6727.840999999999,91.532,350.51800000000014,348.894,0.0
51773.0,STARLINK-3624,PAYLOAD,2022-04-07 14:00:01,15.73229286,0.0001176,53.2158,301.0125,90.3636,41.2401,-0.00016949,-0.00024367,0.0,0 STARLINK-3624,1 51773U 22017F   22097.58334491 -.00024367  00000-0 -16949-3 0  9998,2 51773  53.2158 301.0125 0001176  90.3636  41.2401 15.73229286  3700,6727.812,91.531,350.468,348.885,0.0
51773.0,STARLINK-3624,PAYLOAD,2022-04-07 20:00:01,15.73246561,0.0001167,53.2154,299.7771,76.9061,31.4329,-0.0005065,-0.00071244,0.0,0 STARLINK-3624,1 51773U 22017F   22097.83334491 -.00071244  00000-0 -50650-3 0  9999,2 51773  53.2154 299.7771 0001167  76.9061  31.4329 15.73246561  7729,6727.762,91.53,350.413,348.842,0.0
51773.0,STARLINK-3624,PAYLOAD,2022-04-07 22:00:00,15.73212077,0.0001235,53.2156,299.365,74.0838,146.5042,-6.9219e-05,-0.00010327,0.0,0 STARLINK-3624,1 51773U 22017F   22097.91667824 -.00010327  00000-0 -69219-4 0  9994,2 51773  53.2156 299.3650 0001235  74.0838 146.5042 15.73212077  3697,6727.861,91.532,350.557,348.895,0.0
51773.0,STARLINK-3624,PAYLOAD,2022-04-08 06:00:00,15.73225382,0.0001119,53.215,297.714,82.3912,227.1411,0.00028142,0.00039102,0.0,0 STARLINK-3624,1 51773U 22017F   22098.25001157  .00039102  00000-0  28142-3 0  9992,2 51773  53.2150 297.7140 0001119  82.3912 227.1411 15.73225382  7797,6727.823,91.532,350.441,348.935,0.0
51773.0,STARLINK-3624,PAYLOAD,2022-04-08 14:00:03,15.73293011,8.97e-05,53.2153,296.0638,90.5731,308.0582,-0.00073324,-0.00102681,0.0,0 STARLINK-3624,1 51773U 22017F   22098.58336806 -.00102681  00000-0 -73324-3 0  9997,2 51773  53.2153 296.0638 0000897  90.5731 308.0582 15.73293011  3705,6727.63,91.528,350.098,348.892,0.0
51773.0,STARLINK-3624,PAYLOAD,2022-04-08 22:00:00,15.731818099999998,8.05e-05,53.2155,294.4164,66.4279,61.0644,-0.00020744,-0.00029605,0.0,0 STARLINK-3624,1 51773U 22017F   22098.91667824 -.00029605  00000-0 -20744-3 0  9993,2 51773  53.2155 294.4164 0000805  66.4279  61.0644 15.73181810  7893,6727.946999999999,91.534,350.35400000000016,349.27,0.0
51773.0,STARLINK-3624,PAYLOAD,2022-04-09 14:00:01,15.73140542,0.000106,53.2157,291.1156,81.2912,223.9639,0.00033236,0.00046162,0.0,0 STARLINK-3624,1 51773U 22017F   22099.58334491  .00046162  00000-0  33236-3 0  9993,2 51773  53.2157 291.1156 0001060  81.2912 223.9639 15.73140542  3709,6728.065,91.537,350.64300000000014,349.217,0.0
51773.0,STARLINK-3624,PAYLOAD,2022-04-09 22:00:00,15.7317502,0.000112,53.2154,289.4681,65.775,328.3924,0.00074068,0.00104519,0.0,0 STARLINK-3624,1 51773U 22017F   22099.91667824  .00104519  00000-0  74068-3 0  9998,2 51773  53.2154 289.4681 0001120  65.7750 328.3924 15.73175020  8052,6727.965999999999,91.535,350.585,349.07800000000015,0.0
